HAWK-C                  
1 43799U 18099AT  26068.67261865  .00009431  00000+0  35663-3 0  9994
2 43799  97.4027 122.6817 0040363 277.4052  82.2601 15.26407167398720
STARLINK-35072          
1 65505U 25198P   26068.83354357  .00024320  00000+0  83041-3 0  9995
2 65505  53.1581 270.2196 0001077  73.5353 286.5766 15.30205251 28648
